NORAD_CAT_ID,OBJECT_NAME,OBJECT_TYPE,EPOCH,MEAN_MOTION,ECCENTRICITY,INCLINATION,RA_OF_ASC_NODE,ARG_OF_PERICENTER,MEAN_ANOMALY,BSTAR,MEAN_MOTION_DOT,MEAN_MOTION_DDOT,TLE_LINE0,TLE_LINE1,TLE_LINE2,SEMIMAJOR_AXIS,PERIOD,APOGEE,PERIGEE,DECAYED
49745.0,STARLINK-3241,PAYLOAD,2022-02-28 14:00:01,15.0884875,0.000196,53.2179,268.6902,64.9672,54.5984,0.0009041,0.00014133,0.0,0 STARLINK-3241,1 49745U 21115X   22059.58334491  .00014133  00000-0  90410-3 0  9993,2 49745  53.2179 268.6902 0001960  64.9672  54.5984 15.08848750  3612,6917.854,95.437,541.075,538.363,0.0
49745.0,STARLINK-3241,PAYLOAD,2022-02-28 22:00:00,15.08850637,0.0002066,53.2178,267.1957,58.5509,72.6277,-0.00037003,-6.174e-05,0.0,0 STARLINK-3241,1 49745U 21115X   22059.91667824 -.00006174  00000-0 -37003-3 0  9996,2 49745  53.2178 267.1957 0002066  58.5509  72.6277 15.08850637  3614,6917.848000000001,95.437,541.1419999999998,538.284,0.0
49745.0,STARLINK-3241,PAYLOAD,2022-03-01 06:00:00,15.08854473,0.0001929,53.2174,265.6982,59.188,83.596,-0.003036,-0.00048302,0.0,0 STARLINK-3241,1 49745U 21115X   22060.25001157 -.00048302  00000-0 -30360-2 0  9993,2 49745  53.2174 265.6982 0001929  59.1880  83.5960 15.08854473 14802,6917.8359999999975,95.437,541.036,538.367,0.0
49745.0,STARLINK-3241,PAYLOAD,2022-03-01 14:00:01,15.08834312,0.0001924,53.2176,264.2011,63.9852,90.3867,0.00051767,7.959e-05,0.0,0 STARLINK-3241,1 49745U 21115X   22060.58334491  .00007959  00000-0  51767-3 0  9995,2 49745  53.2176 264.2011 0001924  63.9852  90.3867 15.08834312  3607,6917.898,95.438,541.094,538.432,0.0
49745.0,STARLINK-3241,PAYLOAD,2022-03-01 22:00:01,15.08822283,0.0002068,53.2176,262.7065,57.4995,108.5288,0.0012193,0.00019161,0.0,0 STARLINK-3241,1 49745U 21115X   22060.91668981  .00019161  00000-0  12193-2 0  9993,2 49745  53.2176 262.7065 0002068  57.4995 108.5288 15.08822283 14903,6917.935,95.439,541.23,538.369,0.0
49745.0,STARLINK-3241,PAYLOAD,2022-03-02 14:00:01,15.08847606,0.0001996,53.2178,259.712,64.2589,124.8797,0.00018249,2.618e-05,0.0,0 STARLINK-3241,1 49745U 21115X   22061.58334491  .00002618  00000-0  18249-3 0  9991,2 49745  53.2178 259.7120 0001996  64.2589 124.8797 15.08847606  3581,6917.857,95.437,541.1030000000002,538.341,0.0
49745.0,STARLINK-3241,PAYLOAD,2022-03-02 22:00:00,15.08831895,0.0002123,53.2179,258.2173,57.5009,143.2456,0.0013649,0.00021496,0.0,0 STARLINK-3241,1 49745U 21115X   22061.91667824  .00021496  00000-0  13649-2 0  9990,2 49745  53.2179 258.2173 0002123  57.5009 143.2456 15.08831895 15054,6917.905,95.438,541.239,538.3009999999998,0.0
49745.0,STARLINK-3241,PAYLOAD,2022-03-03 14:00:01,15.08833511,0.0001941,53.2183,255.2227,63.2536,160.6711,-0.00015803,-2.802e-05,0.0,0 STARLINK-3241,1 49745U 21115X   22062.58334491 -.00002802  00000-0 -15803-3 0  9992,2 49745  53.2183 255.2227 0001941  63.2536 160.6711 15.08833511 15157,6917.9,95.438,541.1080000000002,538.422,0.0
49745.0,STARLINK-3241,PAYLOAD,2022-03-03 22:00:00,15.08810396,0.0002085,53.2184,253.728,56.6884,178.8263,0.0021341,0.00033812,0.0,0 STARLINK-3241,1 49745U 21115X   22062.91667824  .00033812  00000-0  21341-2 0  9994,2 49745  53.2184 253.7280 0002085  56.6884 178.8263 15.08810396  3608,6917.971,95.439,541.278,538.393,0.0
49745.0,STARLINK-3241,PAYLOAD,2022-03-04 14:00:01,15.0884202,0.0001925,53.2179,250.7255,61.6088,197.1313,-0.0038757,-0.00061449,0.0,0 STARLINK-3241,1 49745U 21115X   22063.58335648 -.00061449  00000-0 -38757-2 0  9992,2 49745  53.2179 250.7255 0001925  61.6088 197.1313 15.08842020 15315,6917.874,95.437,541.071,538.408,0.0
49745.0,STARLINK-3241,PAYLOAD,2022-03-04 22:00:00,15.08820678,0.0002084,53.2188,249.2389,57.6138,212.6638,0.002393,0.00037982,0.0,0 STARLINK-3241,1 49745U 21115X   22063.91667824  .00037982  00000-0  23930-2 0  9993,2 49745  53.2188 249.2389 0002084  57.6138 212.6638 15.08820678 15367,6917.939,95.439,541.246,538.363,0.0
49745.0,STARLINK-3241,PAYLOAD,2022-03-05 06:00:00,15.08845659,0.0001928,53.2189,247.741,61.78100000000001,220.0866,-0.00054916,-9.019e-05,0.0,0 STARLINK-3241,1 49745U 21115X   22064.25001157 -.00009019  00000-0 -54916-3 0  9993,2 49745  53.2189 247.7410 0001928  61.7810 220.0866 15.08845659  3601,6917.863,95.437,541.062,538.394,0.0
49745.0,STARLINK-3241,PAYLOAD,2022-03-05 14:00:01,15.08863617,0.0001918,53.219,246.2447,64.9939,228.4738,-0.00073737,-0.00012012,0.0,0 STARLINK-3241,1 49745U 21115X   22064.58334491 -.00012012  00000-0 -73737-3 0  9998,2 49745  53.2190 246.2447 0001918  64.9939 228.4738 15.08863617  3584,6917.808000000001,95.436,541.0,538.346,0.0
49745.0,STARLINK-3241,PAYLOAD,2022-03-05 16:00:00,15.08870261,0.0001946,53.219,245.8712,62.2796,324.0914,-0.0020078,-0.00032127,0.0,0 STARLINK-3241,1 49745U 21115X   22064.66667824 -.00032127  00000-0 -20078-2 0  9994,2 49745  53.2190 245.8712 0001946  62.2796 324.0914 15.08870261 15470,6917.788000000001,95.436,540.999,538.307,0.0
49745.0,STARLINK-3241,PAYLOAD,2022-03-05 22:00:01,15.08844899,0.000199,53.2189,244.7498,57.8737,247.2788,-0.00038463,-6.405e-05,0.0,0 STARLINK-3241,1 49745U 21115X   22064.91668981 -.00006405  00000-0 -38463-3 0  9995,2 49745  53.2189 244.7498 0001990  57.8737 247.2788 15.08844899  3617,6917.865,95.437,541.107,538.354,0.0
49745.0,STARLINK-3241,PAYLOAD,2022-03-06 14:00:01,15.08855966,0.0001806,53.219,241.7558,64.1998,264.0804,-0.0010184,-0.00016467,0.0,0 STARLINK-3241,1 49745U 21115X   22065.58334491 -.00016467  00000-0 -10184-2 0  9993,2 49745  53.2190 241.7558 0001806  64.1998 264.0804 15.08855966 15615,6917.831999999999,95.437,540.946,538.447,0.0
49745.0,STARLINK-3241,PAYLOAD,2022-03-06 22:00:00,15.08829297,0.0001895,53.2186,240.261,57.7126,282.1793,0.0021586,0.00034223,0.0,0 STARLINK-3241,1 49745U 21115X   22065.91667824  .00034223  00000-0  21586-2 0  9995,2 49745  53.2186 240.2610 0001895  57.7126 282.1793 15.08829297  3569,6917.913000000001,95.438,541.089,538.467,0.0
49745.0,STARLINK-3241,PAYLOAD,2022-03-07 12:00:00,15.08832518,0.0001703,53.2185,237.6408,65.182,204.9976,0.00057209,8.827e-05,0.0,0 STARLINK-3241,1 49745U 21115X   22066.50001157  .00008827  00000-0  57209-3 0  9995,2 49745  53.2185 237.6408 0001703  65.1820 204.9976 15.08832518  3638,6917.903,95.438,540.946,538.59,0.0
49745.0,STARLINK-3241,PAYLOAD,2022-03-07 22:00:00,15.08812263,0.0001813,53.2184,235.7723,56.2627,318.4001,0.0026771,0.00042543,0.0,0 STARLINK-3241,1 49745U 21115X   22066.91667824  .00042543  00000-0  26771-2 0  9991,2 49745  53.2184 235.7723 0001813  56.2627 318.4001 15.08812263 15812,6917.965,95.439,541.0840000000002,538.576,0.0
49745.0,STARLINK-3241,PAYLOAD,2022-03-08 06:00:02,15.08824052,0.0001633,53.2183,234.2743,60.9769,325.3346,-0.0010919,-0.00017616,0.0,0 STARLINK-3241,1 49745U 21115X   22067.25002315 -.00017616  00000-0 -10919-2 0  9999,2 49745  53.2183 234.2743 0001633  60.9769 325.3346 15.08824052 15869,6917.929,95.439,540.924,538.664,0.0
49745.0,STARLINK-3241,PAYLOAD,2022-03-08 14:00:01,15.08834165,0.0001678,53.2184,232.7787,60.6307,337.1862,-0.0015354,-0.00024637,0.0,0 STARLINK-3241,1 49745U 21115X   22067.58334491 -.00024637  00000-0 -15354-2 0  9997,2 49745  53.2184 232.7787 0001678  60.6307 337.1862 15.08834165  3604,6917.898,95.438,540.924,538.602,0.0
49745.0,STARLINK-3241,PAYLOAD,2022-03-08 20:00:01,15.08803511,0.0001802,53.2184,231.6577,55.4094,261.0949,0.0021053,0.00033343,0.0,0 STARLINK-3241,1 49745U 21115X   22067.83334491  .00033343  00000-0  21053-2 0  9990,2 49745  53.2184 231.6577 0001802  55.4094 261.0949 15.08803511 15956,6917.9919999999975,95.44,541.104,538.61,0.0
49745.0,STARLINK-3241,PAYLOAD,2022-03-08 22:00:00,15.08801348,0.0001769,53.2182,231.2836,53.6187,355.7777,0.0029138,0.00046341,0.0,0 STARLINK-3241,1 49745U 21115X   22067.91667824  .00046341  00000-0  29138-2 0  9992,2 49745  53.2182 231.2836 0001769  53.6187 355.7777 15.08801348  3608,6917.999,95.44,541.087,538.64,0.0
49745.0,STARLINK-3241,PAYLOAD,2022-03-09 14:00:01,15.08851148,0.0001751999999999,53.2184,228.29,59.4083,13.1324,-0.0016462,-0.000264,0.0,0 STARLINK-3241,1 49745U 21115X   22068.58334491 -.00026400  00000-0 -16462-2 0  9999,2 49745  53.2184 228.2900 0001752  59.4083  13.1324 15.08851148  3616,6917.846,95.437,540.923,538.499,0.0
49745.0,STARLINK-3241,PAYLOAD,2022-03-09 16:00:00,15.08843349,0.0001799,53.2182,227.9164,57.1913,108.251,-0.0011517,-0.00018572,0.0,0 STARLINK-3241,1 49745U 21115X   22068.66667824 -.00018572  00000-0 -11517-2 0  9994,2 49745  53.2182 227.9164 0001799  57.1913 108.2510 15.08843349 16071,6917.87,95.437,540.98,538.491,0.0
49745.0,STARLINK-3241,PAYLOAD,2022-03-09 22:00:01,15.0882085,0.0001838,53.2182,226.7948,52.7117,31.4909,0.0027557,0.00043819,0.0,0 STARLINK-3241,1 49745U 21115X   22068.91668981  .00043819  00000-0  27557-2 0  9998,2 49745  53.2182 226.7948 0001838  52.7117  31.4909 15.08820850  3593,6917.939,95.439,541.075,538.5319999999998,0.0
49745.0,STARLINK-3241,PAYLOAD,2022-03-10 06:00:00,15.08827483,0.0001686,53.2185,225.2967,58.5079,37.2316,0.002346,0.00037233,0.0,0 STARLINK-3241,1 49745U 21115X   22069.25001157  .00037233  00000-0  23460-2 0  9994,2 49745  53.2185 225.2967 0001686  58.5079  37.2316 15.08827483 16165,6917.919,95.438,540.95,538.617,0.0
49745.0,STARLINK-3241,PAYLOAD,2022-03-10 14:00:01,15.08877212,0.0001766,53.2186,223.8013,57.2233,50.1083,-0.0045093999999999,-0.00071418,0.0,0 STARLINK-3241,1 49745U 21115X   22069.58334491 -.00071418  00000-0 -45094-2 0  9992,2 49745  53.2186 223.8013 0001766  57.2233  50.1083 15.08877212  3570,6917.767,95.435,540.8530000000002,538.41,0.0
49745.0,STARLINK-3241,PAYLOAD,2022-03-10 20:00:01,15.0880914,0.0001819,53.2187,222.6802,51.6108,334.4404,0.0028207,0.00044852,0.0,0 STARLINK-3241,1 49745U 21115X   22069.83334491  .00044852  00000-0  28207-2 0  9997,2 49745  53.2187 222.6802 0001819  51.6108 334.4404 15.08809140 16251,6917.975,95.44,541.0980000000002,538.581,0.0
